OBJECT_NAME,OBJECT_ID,EPOCH,MEAN_MOTION,ECCENTRICITY,INCLINATION,RA_OF_ASC_NODE,ARG_OF_PERICENTER,MEAN_ANOMALY,EPHEMERIS_TYPE,CLASSIFICATION_TYPE,NORAD_CAT_ID,ELEMENT_SET_NO,REV_AT_EPOCH,BSTAR,MEAN_MOTION_DOT,MEAN_MOTION_DDOT
LEMUR-2-STARLIGHT,2025-276DY,2026-07-06T23:50:50.040672,14.99287934,.0014694,97.5224,257.9552,71.1239,289.1577,0,U,66783,999,3316,.42157E-3,.5101E-4,0
LEMUR-2-TARTIFLETTE,2025-276DZ,2026-07-06T17:24:00.207360,14.99277169,.001373,97.5225,257.7037,79.6577,280.6194,0,U,66784,999,3312,.34914E-3,.4212E-4,0
LEMUR-2-VUKASIN,2025-276EA,2026-07-07T10:27:28.787904,15.00499035,.0004226,97.5242,258.7341,77.4971,282.6726,0,U,66785,999,3318,.28586E-3,.3545E-4,0
LEMUR-2-HOTSPUR-TOM,2025-276EB,2026-07-06T17:15:10.376640,14.99183448,.0013989,97.5216,257.6747,70.9230,289.3507,0,U,66786,999,3305,.37145E-3,.4474E-4,0
LEMUR-2-MYRA,2025-276EC,2026-07-06T17:37:24.269088,15.00524052,.0018461,97.5208,257.9763,79.9717,280.3589,0,U,66787,999,3314,.38707E-3,.484E-4,0
LEMUR-2 FIKRETDENGIZ,2026-004A,2026-07-07T10:29:25.495296,14.88480375,.0010509,97.8026,186.6857,77.6746,282.5647,0,U,67363,999,2629,.25805E-3,.2344E-4,0
TWILIGHT-1 OBJECT B,2026-004B,2026-07-07T11:17:33.791136,14.87776167,.0010135,97.8067,186.7239,68.0680,292.1613,0,U,67364,999,2630,.18693E-3,.1653E-4,0
LEMUR-2-MARIO-SOUSA,2026-004C,2026-07-06T22:44:27.957120,14.88683478,.0010226,97.7998,186.1987,80.1925,280.0447,0,U,67365,999,2623,.40765E-3,.3754E-4,0
LEMUR-2-SONNENBLUME,2026-004E,2026-07-06T22:46:27.273792,14.88426255,.0009743,97.7994,186.1767,81.1165,279.1155,0,U,67367,999,2623,.28918E-3,.2629E-4,0
LEMUR-2-WOBLER,2026-004F,2026-07-06T22:32:56.461632,14.88659353,.0009913,97.8045,186.3094,72.9418,287.2884,0,U,67368,999,2623,.35866E-3,.3294E-4,0
LEMUR-2-GRAM-E-SUE,2026-004H,2026-07-07T11:15:10.069056,14.88566107,.0008841,97.7980,186.7048,81.9735,278.2485,0,U,67370,999,2631,.23119E-3,.2098E-4,0
LEMUR-2-KATIE,2026-004AA,2026-07-07T05:35:26.048832,14.90205469,.0004142,97.8045,186.9973,52.0155,308.1437,0,U,67387,999,2629,.3192E-3,.3039E-4,0
LEMUR-2-HCS-BAZUS,2026-004AB,2026-07-06T23:06:27.944352,14.90233192,.0003591,97.8032,186.7099,52.2546,307.8996,0,U,67388,999,2625,.22646E-3,.2141E-4,0
